{"type": "FeatureCollection", "features": [ {"type": "Feature", "properties": {"norad_id": 35883, "name": "COSMOS 2251 DEB", "group": "cosmos-2251-debris", "lat": 61.09230783563907, "lon": -123.75360603238819, "alt_km": 731.8491856839219, "timestamp": "2025-12-03T10:52:57.853251+00:00", "meta": {"OBJECT_NAME": "COSMOS 2251 DEB", "OBJECT_ID": "1993-036ATW", "EPOCH": "2025-11-29T02:53:29.744160", "MEAN_MOTION": 14.50541303, "ECCENTRICITY": 0.00841977, "INCLINATION": 74.0237, "RA_OF_ASC_NODE": 95.6459, "ARG_OF_PERICENTER": 227.8885, "MEAN_ANOMALY": 309.997, "EPHEMERIS_TYPE": 0, "CLASSIFICATION_TYPE": "U", "NORAD_CAT_ID": 35883, "ELEMENT_SET_NO": 999, "REV_AT_EPOCH": 62188, "BSTAR": 0.00041574036, "MEAN_MOTION_DOT": 1.674e-05, "MEAN_MOTION_DDOT": 0}, "tle": {"line1": "1 35883U 93036ATW 25333.12048315  .00001674  00000+0  41574-3 0  9999", "line2": "2 35883  74.0237  95.6459 0084197 227.8885 309.9970 14.50541303621887"}}, "geometry": {"type": "Point", "coordinates": [-123.75360603238819, 61.09230783563907]}}, {"type": "Feature", "properties": {"norad_id": 35884, "name": "COSMOS 2251 DEB", "group": "cosmos-2251-debris", "lat": -47.34313849562758, "lon": -25.331578492877384, "alt_km": 889.88266776202, "timestamp": "2025-12-03T10:52:57.853261+00:00", "meta": {"OBJECT_NAME": "COSMOS 2251 DEB", "OBJECT_ID": "1993-036ATX", "EPOCH": "2025-12-01T08:35:40.210656", "MEAN_MOTION": 14.25555603, "ECCENTRICITY": 0.01094526, "INCLINATION": 73.9914, "RA_OF_ASC_NODE": 356.6148, "ARG_OF_PERICENTER": 146.5236, "MEAN_ANOMALY": 214.2894, "EPHEMERIS_TYPE": 0, "CLASSIFICATION_TYPE": "U", "NORAD_CAT_ID": 35884, "ELEMENT_SET_NO": 999, "REV_AT_EPOCH": 22195, "BSTAR": 0.0012758145, "MEAN_MOTION_DOT": 3.19e-05, "MEAN_MOTION_DDOT": 0}, "tle": {"line1": "1 35884U 93036ATX 25335.35810429  .00003190  00000+0  12758-2 0  9996", "line2": "2 35884  73.9914 356.6148 0109452 146.5236 214.2894 14.25555603221959"}}, "geometry": {"type": "Point", "coordinates": [-25.331578492877384, -47.34313849562758]}}, {"type": "Feature", "properties": {"norad_id": 35885, "name": "COSMOS 2251 DEB", "group": "cosmos-2251-debris", "lat": 59.08876885963182, "lon": -19.52779865911996, "alt_km": 746.4379730055525, "timestamp": "2025-12-03T10:52:57.853271+00:00", "meta": {"OBJECT_NAME": "COSMOS 2251 DEB", "OBJECT_ID": "1993-036ATY", "EPOCH": "2025-12-01T06:48:48.094272", "MEAN_MOTION": 14.37483132, "ECCENTRICITY": 0.0022714, "INCLINATION": 74.0277, "RA_OF_ASC_NODE": 315.8881, "ARG_OF_PERICENTER": 39.4634, "MEAN_ANOMALY": 320.8169, "EPHEMERIS_TYPE": 0, "CLASSIFICATION_TYPE": "U", "NORAD_CAT_ID": 35885, "ELEMENT_SET_NO": 999, "REV_AT_EPOCH": 64851, "BSTAR": 0.00036957, "MEAN_MOTION_DOT": 1.083e-05, "MEAN_MOTION_DDOT": 0}, "tle": {"line1": "1 35885U 93036ATY 25335.28388998  .00001083  00000+0  36957-3 0  9997", "line2": "2 35885  74.0277 315.8881 0022714  39.4634 320.8169 14.37483132648516"}}, "geometry": {"type": "Point", "coordinates": [-19.52779865911996, 59.08876885963182]}}, {"type": "Feature", "properties": {"norad_id": 35888, "name": "COSMOS 2251 DEB", "group": "cosmos-2251-debris", "lat": 40.16275554550294, "lon": 28.326486547101005, "alt_km": 705.2379301138426, "timestamp": "2025-12-03T10:52:57.853282+00:00", "meta": {"OBJECT_NAME": "COSMOS 2251 DEB", "OBJECT_ID": "1993-036AUB", "EPOCH": "2025-12-02T19:52:14.823840", "MEAN_MOTION": 14.58260804, "ECCENTRICITY": 0.0048767, "INCLINATION": 74.0343, "RA_OF_ASC_NODE": 15.5347, "ARG_OF_PERICENTER": 150.5508, "MEAN_ANOMALY": 209.8421, "EPHEMERIS_TYPE": 0, "CLASSIFICATION_TYPE": "U", "NORAD_CAT_ID": 35888, "ELEMENT_SET_NO": 999, "REV_AT_EPOCH": 86129, "BSTAR": 0.00052584, "MEAN_MOTION_DOT": 2.44e-05, "MEAN_MOTION_DDOT": 0}, "tle": {"line1": "1 35888U 93036AUB 25336.82794935  .00002440  00000+0  52584-3 0  9995", "line2": "2 35888  74.0343  15.5347 0048767 150.5508 209.8421 14.58260804861296"}}, "geometry": {"type": "Point", "coordinates": [28.326486547101005, 40.16275554550294]}}, {"type": "Feature", "properties": {"norad_id": 35890, "name": "COSMOS 2251 DEB", "group": "cosmos-2251-debris", "lat": 59.16388431167796, "lon": 51.59456037744921, "alt_km": 696.0831330862084, "timestamp": "2025-12-03T10:52:57.853292+00:00", "meta": {"OBJECT_NAME": "COSMOS 2251 DEB", "OBJECT_ID": "1993-036AUD", "EPOCH": "2025-12-02T03:02:51.744192", "MEAN_MOTION": 14.57171025, "ECCENTRICITY": 0.00534303, "INCLINATION": 73.9364, "RA_OF_ASC_NODE": 262.9881, "ARG_OF_PERICENTER": 29.2492, "MEAN_ANOMALY": 331.1644, "EPHEMERIS_TYPE": 0, "CLASSIFICATION_TYPE": "U", "NORAD_CAT_ID": 35890, "ELEMENT_SET_NO": 999, "REV_AT_EPOCH": 64996, "BSTAR": 0.0024494131, "MEAN_MOTION_DOT": 0.0001126, "MEAN_MOTION_DDOT": 0}, "tle": {"line1": "1 35890U 93036AUD 25336.12698778  .00011260  00000+0  24494-2 0  9997", "line2": "2 35890  73.9364 262.9881 0053430  29.2492 331.1644 14.57171025649967"}}, "geometry": {"type": "Point", "coordinates": [51.59456037744921, 59.16388431167796]}}, {"type": "Feature", "properties": {"norad_id": 35891, "name": "COSMOS 2251 DEB", "group": "cosmos-2251-debris", "lat": 14.922420969916447, "lon": 118.168680238739, "alt_km": 490.83455723709994, "timestamp": "2025-12-03T10:52:57.853303+00:00", "meta": {"OBJECT_NAME": "COSMOS 2251 DEB", "OBJECT_ID": "1993-036AUE", "EPOCH": "2025-12-03T02:58:43.616352", "MEAN_MOTION": 15.32047651, "ECCENTRICITY": 0.0046141, "INCLINATION": 73.9877, "RA_OF_ASC_NODE": 114.4843, "ARG_OF_PERICENTER": 245.3974, "MEAN_ANOMALY": 114.2419, "EPHEMERIS_TYPE": 0, "CLASSIFICATION_TYPE": "U", "NORAD_CAT_ID": 35891, "ELEMENT_SET_NO": 999, "REV_AT_EPOCH": 67073, "BSTAR": 0.0018018, "MEAN_MOTION_DOT": 0.00058053, "MEAN_MOTION_DDOT": 0}, "tle": {"line1": "1 35891U 93036AUE 25337.12411593  .00058053  00000+0  18018-2 0  9993", "line2": "2 35891  73.9877 114.4843 0046141 245.3974 114.2419 15.32047651670733"}}, "geometry": {"type": "Point", "coordinates": [118.168680238739, 14.922420969916447]}}, {"type": "Feature", "properties": {"norad_id": 35895, "name": "COSMOS 2251 DEB", "group": "cosmos-2251-debris", "lat": 30.5749298686048, "lon": 13.499340129875778, "alt_km": 840.6914034827832, "timestamp": "2025-12-03T10:52:57.853313+00:00", "meta": {"OBJECT_NAME": "COSMOS 2251 DEB", "OBJECT_ID": "1993-036AUJ", "EPOCH": "2025-11-28T10:48:22.739616", "MEAN_MOTION": 14.01419981, "ECCENTRICITY": 0.01996382, "INCLINATION": 74.0486, "RA_OF_ASC_NODE": 12.4453, "ARG_OF_PERICENTER": 114.4344, "MEAN_ANOMALY": 247.7763, "EPHEMERIS_TYPE": 0, "CLASSIFICATION_TYPE": "U", "NORAD_CAT_ID": 35895, "ELEMENT_SET_NO": 999, "REV_AT_EPOCH": 58812, "BSTAR": 0.0013219318, "MEAN_MOTION_DOT": 2.352e-05, "MEAN_MOTION_DDOT": 0}, "tle": {"line1": "1 35895U 93036AUJ 25332.45026319  .00002352  00000+0  13219-2 0  9995", "line2": "2 35895  74.0486  12.4453 0199638 114.4344 247.7763 14.01419981588125"}}, "geometry": {"type": "Point", "coordinates": [13.499340129875778, 30.5749298686048]}}, {"type": "Feature", "properties": {"norad_id": 35898, "name": "COSMOS 2251 DEB", "group": "cosmos-2251-debris", "lat": 27.44236394649567, "lon": -35.20003183360575, "alt_km": 566.622361765314, "timestamp": "2025-12-03T10:52:57.853323+00:00", "meta": {"OBJECT_NAME": "COSMOS 2251 DEB", "OBJECT_ID": "1993-036AUM", "EPOCH": "2025-12-01T05:48:44.726112", "MEAN_MOTION": 14.94426348, "ECCENTRICITY": 0.0079293, "INCLINATION": 73.9911, "RA_OF_ASC_NODE": 320.6917, "ARG_OF_PERICENTER": 107.3965, "MEAN_ANOMALY": 270.638, "EPHEMERIS_TYPE": 0, "CLASSIFICATION_TYPE": "U", "NORAD_CAT_ID": 35898, "ELEMENT_SET_NO": 999, "REV_AT_EPOCH": 66638, "BSTAR": 0.00081015, "MEAN_MOTION_DOT": 9.266e-05, "MEAN_MOTION_DDOT": 0}, "tle": {"line1": "1 35898U 93036AUM 25335.24218433  .00009266  00000+0  81015-3 0  9999", "line2": "2 35898  73.9911 320.6917 0079293 107.3965 270.6380 14.94426348666384"}}, "geometry": {"type": "Point", "coordinates": [-35.20003183360575, 27.44236394649567]}}, {"type": "Feature", "properties": {"norad_id": 35901, "name": "COSMOS 2251 DEB", "group": "cosmos-2251-debris", "lat": -1.3586830564817758, "lon": 41.56814803841285, "alt_km": 548.5182121771531, "timestamp": "2025-12-03T10:52:57.853334+00:00", "meta": {"OBJECT_NAME": "COSMOS 2251 DEB", "OBJECT_ID": "1993-036AUQ", "EPOCH": "2025-12-01T12:55:02.152704", "MEAN_MOTION": 15.05425838, "ECCENTRICITY": 0.00058343, "INCLINATION": 74.0116, "RA_OF_ASC_NODE": 45.8877, "ARG_OF_PERICENTER": 13.0645, "MEAN_ANOMALY": 49.8256, "EPHEMERIS_TYPE": 0, "CLASSIFICATION_TYPE": "U", "NORAD_CAT_ID": 35901, "ELEMENT_SET_NO": 999, "REV_AT_EPOCH": 85958, "BSTAR": 0.0032773073, "MEAN_MOTION_DOT": 0.00047347, "MEAN_MOTION_DDOT": 0}, "tle": {"line1": "1 35901U 93036AUQ 25335.53821936  .00047347  00000+0  32773-2 0  9992", "line2": "2 35901  74.0116  45.8877 0005834  13.0645  49.8256 15.05425838859587"}}, "geometry": {"type": "Point", "coordinates": [41.56814803841285, -1.3586830564817758]}}, {"type": "Feature", "properties": {"norad_id": 35902, "name": "COSMOS 2251 DEB", "group": "cosmos-2251-debris", "lat": 58.27919006173318, "lon": -80.8720690571664, "alt_km": 753.4774567852819, "timestamp": "2025-12-03T10:52:57.853345+00:00", "meta": {"OBJECT_NAME": "COSMOS 2251 DEB", "OBJECT_ID": "1993-036AUR", "EPOCH": "2025-12-01T03:04:00.207552", "MEAN_MOTION": 14.26791124, "ECCENTRICITY": 0.01016301, "INCLINATION": 73.9836, "RA_OF_ASC_NODE": 255.6555, "ARG_OF_PERICENTER": 12.6385, "MEAN_ANOMALY": 347.7274, "EPHEMERIS_TYPE": 0, "CLASSIFICATION_TYPE": "U", "NORAD_CAT_ID": 35902, "ELEMENT_SET_NO": 999, "REV_AT_EPOCH": 60964, "BSTAR": 0.0014097892, "MEAN_MOTION_DOT": 3.584e-05, "MEAN_MOTION_DDOT": 0}, "tle": {"line1": "1 35902U 93036AUR 25335.12778018  .00003584  00000+0  14098-2 0  9995", "line2": "2 35902  73.9836 255.6555 0101630  12.6385 347.7274 14.26791124609642"}}, "geometry": {"type": "Point", "coordinates": [-80.8720690571664, 58.27919006173318]}}]}